IRIDIUM 39              
1 25042U 97069D   25268.24326446  .00001200  00000+0  30865-3 0  9995
2 25042  86.3980 168.2779 0017116 339.6913  20.3608 14.49343059463452
IRIDIUM 38              
1 25043U 97069E   25268.22169250  .00000930  00000+0  29990-3 0  9998
2 25043  86.4029 191.0974 0003822 105.4635 254.6986 14.38203749460332
IRIDIUM 42              
1 25077U 97077A   25267.86326157  .00000806  00000+0  26867-3 0  9996
2 25077  86.4026 197.5326 0002627 100.6321 259.5172 14.36431383455508
IRIDIUM 44              
1 25078U 97077B   25268.24335670  .00000882  00000+0  27223-3 0  9991
2 25078  86.4035 179.0588 0003984  73.1613 287.0023 14.40327655458100
IRIDIUM 45              
1 25104U 97082A   25268.18734545  .00031595  00000+0  10313-2 0  9990
2 25104  86.3626 359.2102 0106644 316.5047  42.7822 15.26188667467275
IRIDIUM 24              
1 25105U 97082B   25267.87920259  .00001084  00000+0  32296-3 0  9990
2 25105  86.3923  37.9853 0013411 106.2058 254.0619 14.42198312457584
IRIDIUM 51              
1 25262U 98018A   25267.84177755  .00089371  00000+0  15538-2 0  9990
2 25262  86.3851   6.2317 0073214 224.3309 135.2073 15.47469839462390
IRIDIUM 57              
1 25273U 98019B   25267.96202046  .00000573  00000+0  19077-3 0  9998
2 25273  86.3908 103.4468 0002206  89.5140 270.6310 14.35955544439109
