<?xml version="1.0" encoding="UTF-8"?>
<ndm xmlns:xsi="http://www.w3.org/2001/XMLSchema-instance" xsi:noNamespaceSchemaLocation="https://sanaregistry.org/r/ndmxml_unqualified/ndmxml-2.0.0-master-2.0.xsd">
<omm id="CCSDS_OMM_VERS" version="2.0">
<header><CREATION_DATE/><ORIGINATOR/></header><body><segment><metadata><OBJECT_NAME>IRIDIUM 39</OBJECT_NAME><OBJECT_ID>1997-069D</OBJECT_ID><CENTER_NAME>EARTH</CENTER_NAME><REF_FRAME>TEME</REF_FRAME><TIME_SYSTEM>UTC</TIME_SYSTEM><MEAN_ELEMENT_THEORY>SGP4</MEAN_ELEMENT_THEORY></metadata><data><meanElements><EPOCH>2025-09-25T05:50:18.049344</EPOCH><MEAN_MOTION>14.49343059</MEAN_MOTION><ECCENTRICITY>.00171163</ECCENTRICITY><INCLINATION>86.3980</INCLINATION><RA_OF_ASC_NODE>168.2779</RA_OF_ASC_NODE><ARG_OF_PERICENTER>339.6913</ARG_OF_PERICENTER><MEAN_ANOMALY>20.3608</MEAN_ANOMALY></meanElements><tleParameters><EPHEMERIS_TYPE>0</EPHEMERIS_TYPE><CLASSIFICATION_TYPE>U</CLASSIFICATION_TYPE><NORAD_CAT_ID>25042</NORAD_CAT_ID><ELEMENT_SET_NO>999</ELEMENT_SET_NO><REV_AT_EPOCH>46345</REV_AT_EPOCH><BSTAR>.3086487E-3</BSTAR><MEAN_MOTION_DOT>.12E-4</MEAN_MOTION_DOT><MEAN_MOTION_DDOT>0</MEAN_MOTION_DDOT></tleParameters></data></segment></body></omm>
<omm id="CCSDS_OMM_VERS" version="2.0">
<header><CREATION_DATE/><ORIGINATOR/></header><body><segment><metadata><OBJECT_NAME>IRIDIUM 38</OBJECT_NAME><OBJECT_ID>1997-069E</OBJECT_ID><CENTER_NAME>EARTH</CENTER_NAME><REF_FRAME>TEME</REF_FRAME><TIME_SYSTEM>UTC</TIME_SYSTEM><MEAN_ELEMENT_THEORY>SGP4</MEAN_ELEMENT_THEORY></metadata><data><meanElements><EPOCH>2025-09-25T05:19:14.232000</EPOCH><MEAN_MOTION>14.38203749</MEAN_MOTION><ECCENTRICITY>.00038223</ECCENTRICITY><INCLINATION>86.4029</INCLINATION><RA_OF_ASC_NODE>191.0974</RA_OF_ASC_NODE><ARG_OF_PERICENTER>105.4635</ARG_OF_PERICENTER><MEAN_ANOMALY>254.6986</MEAN_ANOMALY></meanElements><tleParameters><EPHEMERIS_TYPE>0</EPHEMERIS_TYPE><CLASSIFICATION_TYPE>U</CLASSIFICATION_TYPE><NORAD_CAT_ID>25043</NORAD_CAT_ID><ELEMENT_SET_NO>999</ELEMENT_SET_NO><REV_AT_EPOCH>46033</REV_AT_EPOCH><BSTAR>.29989636E-3</BSTAR><MEAN_MOTION_DOT>.93E-5</MEAN_MOTION_DOT><MEAN_MOTION_DDOT>0</MEAN_MOTION_DDOT></tleParameters></data></segment></body></omm>
<omm id="CCSDS_OMM_VERS" version="2.0">
<header><CREATION_DATE/><ORIGINATOR/></header><body><segment><metadata><OBJECT_NAME>IRIDIUM 42</OBJECT_NAME><OBJECT_ID>1997-077A</OBJECT_ID><CENTER_NAME>EARTH</CENTER_NAME><REF_FRAME>TEME</REF_FRAME><TIME_SYSTEM>UTC</TIME_SYSTEM><MEAN_ELEMENT_THEORY>SGP4</MEAN_ELEMENT_THEORY></metadata><data><meanElements><EPOCH>2025-09-24T20:43:05.799648</EPOCH><MEAN_MOTION>14.36431383</MEAN_MOTION><ECCENTRICITY>.00026276</ECCENTRICITY><INCLINATION>86.4026</INCLINATION><RA_OF_ASC_NODE>197.5326</RA_OF_ASC_NODE><ARG_OF_PERICENTER>100.6321</ARG_OF_PERICENTER><MEAN_ANOMALY>259.5172</MEAN_ANOMALY></meanElements><tleParameters><EPHEMERIS_TYPE>0</EPHEMERIS_TYPE><CLASSIFICATION_TYPE>U</CLASSIFICATION_TYPE><NORAD_CAT_ID>25077</NORAD_CAT_ID><ELEMENT_SET_NO>999</ELEMENT_SET_NO><REV_AT_EPOCH>45550</REV_AT_EPOCH><BSTAR>.26866892E-3</BSTAR><MEAN_MOTION_DOT>.806E-5</MEAN_MOTION_DOT><MEAN_MOTION_DDOT>0</MEAN_MOTION_DDOT></tleParameters></data></segment></body></omm>
<omm id="CCSDS_OMM_VERS" version="2.0">
<header><CREATION_DATE/><ORIGINATOR/></header><body><segment><metadata><OBJECT_NAME>IRIDIUM 44</OBJECT_NAME><OBJECT_ID>1997-077B</OBJECT_ID><CENTER_NAME>EARTH</CENTER_NAME><REF_FRAME>TEME</REF_FRAME><TIME_SYSTEM>UTC</TIME_SYSTEM><MEAN_ELEMENT_THEORY>SGP4</MEAN_ELEMENT_THEORY></metadata><data><meanElements><EPOCH>2025-09-25T05:50:26.018880</EPOCH><MEAN_MOTION>14.40327655</MEAN_MOTION><ECCENTRICITY>.00039844</ECCENTRICITY><INCLINATION>86.4035</INCLINATION><RA_OF_ASC_NODE>179.0588</RA_OF_ASC_NODE><ARG_OF_PERICENTER>73.1613</ARG_OF_PERICENTER><MEAN_ANOMALY>287.0023</MEAN_ANOMALY></meanElements><tleParameters><EPHEMERIS_TYPE>0</EPHEMERIS_TYPE><CLASSIFICATION_TYPE>U</CLASSIFICATION_TYPE><NORAD_CAT_ID>25078</NORAD_CAT_ID><ELEMENT_SET_NO>999</ELEMENT_SET_NO><REV_AT_EPOCH>45810</REV_AT_EPOCH><BSTAR>.27222921E-3</BSTAR><MEAN_MOTION_DOT>.882E-5</MEAN_MOTION_DOT><MEAN_MOTION_DDOT>0</MEAN_MOTION_DDOT></tleParameters></data></segment></body></omm>
<omm id="CCSDS_OMM_VERS" version="2.0">
<header><CREATION_DATE/><ORIGINATOR/></header><body><segment><metadata><OBJECT_NAME>IRIDIUM 45</OBJECT_NAME><OBJECT_ID>1997-082A</OBJECT_ID><CENTER_NAME>EARTH</CENTER_NAME><REF_FRAME>TEME</REF_FRAME><TIME_SYSTEM>UTC</TIME_SYSTEM><MEAN_ELEMENT_THEORY>SGP4</MEAN_ELEMENT_THEORY></metadata><data><meanElements><EPOCH>2025-09-25T04:29:46.646880</EPOCH><MEAN_MOTION>15.26188667</MEAN_MOTION><ECCENTRICITY>.01066443</ECCENTRICITY><INCLINATION>86.3626</INCLINATION><RA_OF_ASC_NODE>359.2102</RA_OF_ASC_NODE><ARG_OF_PERICENTER>316.5047</ARG_OF_PERICENTER><MEAN_ANOMALY>42.7822</MEAN_ANOMALY></meanElements><tleParameters><EPHEMERIS_TYPE>0</EPHEMERIS_TYPE><CLASSIFICATION_TYPE>U</CLASSIFICATION_TYPE><NORAD_CAT_ID>25104</NORAD_CAT_ID><ELEMENT_SET_NO>999</ELEMENT_SET_NO><REV_AT_EPOCH>46727</REV_AT_EPOCH><BSTAR>.10313488E-2</BSTAR><MEAN_MOTION_DOT>.31595E-3</MEAN_MOTION_DOT><MEAN_MOTION_DDOT>0</MEAN_MOTION_DDOT></tleParameters></data></segment></body></omm>
<omm id="CCSDS_OMM_VERS" version="2.0">
<header><CREATION_DATE/><ORIGINATOR/></header><body><segment><metadata><OBJECT_NAME>IRIDIUM 24</OBJECT_NAME><OBJECT_ID>1997-082B</OBJECT_ID><CENTER_NAME>EARTH</CENTER_NAME><REF_FRAME>TEME</REF_FRAME><TIME_SYSTEM>UTC</TIME_SYSTEM><MEAN_ELEMENT_THEORY>SGP4</MEAN_ELEMENT_THEORY></metadata><data><meanElements><EPOCH>2025-09-24T21:06:03.103776</EPOCH><MEAN_MOTION>14.42198312</MEAN_MOTION><ECCENTRICITY>.00134111</ECCENTRICITY><INCLINATION>86.3923</INCLINATION><RA_OF_ASC_NODE>37.9853</RA_OF_ASC_NODE><ARG_OF_PERICENTER>106.2058</ARG_OF_PERICENTER><MEAN_ANOMALY>254.0619</MEAN_ANOMALY></meanElements><tleParameters><EPHEMERIS_TYPE>0</EPHEMERIS_TYPE><CLASSIFICATION_TYPE>U</CLASSIFICATION_TYPE><NORAD_CAT_ID>25105</NORAD_CAT_ID><ELEMENT_SET_NO>999</ELEMENT_SET_NO><REV_AT_EPOCH>45758</REV_AT_EPOCH><BSTAR>.32295827E-3</BSTAR><MEAN_MOTION_DOT>.1084E-4</MEAN_MOTION_DOT><MEAN_MOTION_DDOT>0</MEAN_MOTION_DDOT></tleParameters></data></segment></body></omm>
<omm id="CCSDS_OMM_VERS" version="2.0">
<header><CREATION_DATE/><ORIGINATOR/></header><body><segment><metadata><OBJECT_NAME>IRIDIUM 51</OBJECT_NAME><OBJECT_ID>1998-018A</OBJECT_ID><CENTER_NAME>EARTH</CENTER_NAME><REF_FRAME>TEME</REF_FRAME><TIME_SYSTEM>UTC</TIME_SYSTEM><MEAN_ELEMENT_THEORY>SGP4</MEAN_ELEMENT_THEORY></metadata><data><meanElements><EPOCH>2025-09-24T20:12:09.580320</EPOCH><MEAN_MOTION>15.47469839</MEAN_MOTION><ECCENTRICITY>.0073214</ECCENTRICITY><INCLINATION>86.3851</INCLINATION><RA_OF_ASC_NODE>6.2317</RA_OF_ASC_NODE><ARG_OF_PERICENTER>224.3309</ARG_OF_PERICENTER><MEAN_ANOMALY>135.2073</MEAN_ANOMALY></meanElements><tleParameters><EPHEMERIS_TYPE>0</EPHEMERIS_TYPE><CLASSIFICATION_TYPE>U</CLASSIFICATION_TYPE><NORAD_CAT_ID>25262</NORAD_CAT_ID><ELEMENT_SET_NO>999</ELEMENT_SET_NO><REV_AT_EPOCH>46239</REV_AT_EPOCH><BSTAR>.15538069E-2</BSTAR><MEAN_MOTION_DOT>.89371E-3</MEAN_MOTION_DOT><MEAN_MOTION_DDOT>0</MEAN_MOTION_DDOT></tleParameters></data></segment></body></omm>
<omm id="CCSDS_OMM_VERS" version="2.0">
<header><CREATION_DATE/><ORIGINATOR/></header><body><segment><metadata><OBJECT_NAME>IRIDIUM 57</OBJECT_NAME><OBJECT_ID>1998-019B</OBJECT_ID><CENTER_NAME>EARTH</CENTER_NAME><REF_FRAME>TEME</REF_FRAME><TIME_SYSTEM>UTC</TIME_SYSTEM><MEAN_ELEMENT_THEORY>SGP4</MEAN_ELEMENT_THEORY></metadata><data><meanElements><EPOCH>2025-09-24T23:05:18.567744</EPOCH><MEAN_MOTION>14.35955544</MEAN_MOTION><ECCENTRICITY>.00022064</ECCENTRICITY><INCLINATION>86.3908</INCLINATION><RA_OF_ASC_NODE>103.4468</RA_OF_ASC_NODE><ARG_OF_PERICENTER>89.5140</ARG_OF_PERICENTER><MEAN_ANOMALY>270.6310</MEAN_ANOMALY></meanElements><tleParameters><EPHEMERIS_TYPE>0</EPHEMERIS_TYPE><CLASSIFICATION_TYPE>U</CLASSIFICATION_TYPE><NORAD_CAT_ID>25273</NORAD_CAT_ID><ELEMENT_SET_NO>999</ELEMENT_SET_NO><REV_AT_EPOCH>43910</REV_AT_EPOCH><BSTAR>.1907707E-3</BSTAR><MEAN_MOTION_DOT>.573E-5</MEAN_MOTION_DOT><MEAN_MOTION_DDOT>0</MEAN_MOTION_DDOT></tleParameters></data></segment></body></omm>

</ndm>
